OBJECT_NAME,OBJECT_ID,EPOCH,MEAN_MOTION,ECCENTRICITY,INCLINATION,RA_OF_ASC_NODE,ARG_OF_PERICENTER,MEAN_ANOMALY,EPHEMERIS_TYPE,CLASSIFICATION_TYPE,NORAD_CAT_ID,ELEMENT_SET_NO,REV_AT_EPOCH,BSTAR,MEAN_MOTION_DOT,MEAN_MOTION_DDOT
STARLINK-37945,2026-143W,2026-07-08T12:00:02.000160,15.66384883,.00012405,97.2852,233.4756,77.5780,300.5832,0,U,69669,999,378,-.27137529E-1,-.2458047E-1,0
STARLINK-37948,2026-143X,2026-07-08T12:00:02.000160,15.49100357,.00008622,97.2858,233.4060,98.9981,109.0855,0,U,69670,999,378,.23362856E-2,.128671E-2,0
STARLINK-37949,2026-143Y,2026-07-08T12:00:02.000160,15.59436508,.00017458,97.2854,233.4520,96.1328,213.6167,0,U,69671,999,378,-.34247899E-1,-.237277E-1,0
STARLINK-37946,2026-143Z,2026-07-08T12:00:02.000160,15.62326742,.00012826,97.2854,233.4755,88.5316,275.1914,0,U,69672,999,378,-.30287548E-1,-.2349279E-1,0
TJS-26A,2026-144A,2026-07-07T19:23:23.106912,1.00267330,.00034059,6.9612,323.2261,346.6689,14.2705,0,U,69674,999,14,0,-.335E-5,0
CZ-7A R/B,2026-144B,2026-07-08T10:30:52.857792,2.51764230,.7153257,19.4639,318.1770,190.9674,135.4218,0,U,69675,999,39,.61856492E-3,.49114E-2,-.548543E-6
2026-132G,2026-132G,2026-06-27T03:19:26.058720,15.03894241,.00213411,97.6876,241.7399,253.6187,106.2693,0,U,69676,999,227,.61874088E-3,.8509E-4,0
STARLINK-38005,2026-145A,2026-07-08T12:09:05.223744,15.75237853,.00015064,97.2854,36.0120,95.8160,264.3277,0,U,69677,999,212,.13737839E-2,.210341E-2,0
STARLINK-38009,2026-145B,2026-07-08T12:06:32.053824,15.75312941,.00014003,97.2871,36.0144,84.0719,276.0706,0,U,69678,999,212,.10050954E-2,.153321E-2,0
STARLINK-37998,2026-145C,2026-07-08T12:02:56.031360,15.73342590,.00137237,97.2857,36.0185,67.8847,292.3873,0,U,69679,999,212,-.30467267E-1,-.3603823E-1,0
STARLINK-37994,2026-145D,2026-07-08T12:05:02.532192,15.73065174,.0014566,97.2858,36.0159,50.3810,309.8737,0,U,69680,999,212,-.35236099E-1,-.4028732E-1,0
STARLINK-37992,2026-145E,2026-07-08T12:03:43.572096,15.77330110,.00094656,97.2845,36.0177,23.2573,336.9120,0,U,69681,999,212,.36735706E-2,.649988E-2,0
STARLINK-37997,2026-145F,2026-07-08T12:02:53.850624,15.76020702,.00066201,97.2854,36.0187,55.3838,304.8051,0,U,69682,999,212,.17610402E-2,.281577E-2,0
STARLINK-37990,2026-145G,2026-07-08T12:03:27.515520,15.75603447,.00040178,97.2773,36.0193,63.0735,297.0941,0,U,69683,999,212,-.49912996E-2,-.699903E-2,0
STARLINK-37951,2026-145H,2026-07-08T13:33:57.274272,15.75249233,.00004008,97.2860,36.0853,332.6431,27.4813,0,U,69684,999,213,.40322521E-3,.60595E-3,0
STARLINK-37957,2026-145J,2026-07-08T12:00:57.034368,15.75292227,.00016396,97.2861,36.0198,80.3665,279.7785,0,U,69685,999,212,.13538579E-2,.207712E-2,0
STARLINK-37968,2026-145K,2026-07-08T11:52:15.160224,15.75469954,.00032547,97.2847,36.0281,81.7092,278.4542,0,U,69686,999,212,.114027E-2,.175635E-2,0
STARLINK-37977,2026-145L,2026-07-08T11:51:13.406688,15.75481886,.00032119,97.2847,36.0296,200.8372,159.2763,0,U,69687,999,212,.1262162E-2,.194965E-2,0
STARLINK-37908,2026-145M,2026-07-08T11:48:14.682240,15.75308645,.00014923,97.2846,36.0327,78.3662,281.7771,0,U,69688,999,212,.13240167E-2,.203165E-2,0
STARLINK-37979,2026-145N,2026-07-08T11:47:44.314368,15.75336482,.00028021,97.2859,36.0332,75.7922,284.3655,0,U,69689,999,212,.16371423E-2,.253049E-2,0
STARLINK-37940,2026-145P,2026-07-08T13:17:42.271008,15.75269955,.00017643,97.2848,36.1017,126.8530,233.2897,0,U,69690,999,213,.12485007E-2,.190977E-2,0
STARLINK-37961,2026-145Q,2026-07-08T13:13:07.490496,15.75258295,.00013507,97.2858,36.1059,96.9931,263.1488,0,U,69691,999,213,.13603033E-2,.208411E-2,0
STARLINK-37787,2026-145R,2026-07-08T13:10:04.575648,15.75257345,.00012843,97.2862,36.1085,94.3271,265.8141,0,U,69692,999,213,.12517056E-2,.191369E-2,0
STARLINK-37962,2026-145S,2026-07-08T12:00:02.000160,15.75208738,.00015541,97.2852,36.0641,98.0529,356.4354,0,U,69693,999,335,-.39185121E-4,-.5975E-4,0
STARLINK-37953,2026-145T,2026-07-08T13:11:36.066336,15.75249439,.0001227,97.2864,36.1069,107.5921,252.5478,0,U,69694,999,213,.1264256E-2,.193267E-2,0
STARLINK-37926,2026-145U,2026-07-08T13:10:35.051520,15.75258054,.0001332,97.2860,36.1084,111.7938,248.3470,0,U,69695,999,213,.13599098E-2,.208347E-2,0
STARLINK-37959,2026-145V,2026-07-08T13:09:03.530592,15.75249457,.00013038,97.2846,36.1098,115.1894,244.9506,0,U,69696,999,213,.11268847E-2,.171817E-2,0
STARLINK-37976,2026-145W,2026-07-08T13:04:59.703744,15.75283374,.00012516,97.2860,36.1132,110.3201,249.8199,0,U,69697,999,213,.11866905E-2,.181414E-2,0
STARLINK-37912,2026-145X,2026-07-08T13:03:28.255392,15.75282750,.0001012,97.2861,36.1151,89.9622,270.1759,0,U,69698,999,213,.11242354E-2,.171656E-2,0
STARLINK-37974,2026-145Y,2026-07-08T13:02:27.272544,15.75281909,.00012986,97.2860,36.1162,115.1124,245.0276,0,U,69699,999,213,.12259032E-2,.187536E-2,0
