STARLINK-37945          
1 69669U 26143W   26189.50002315 -.02458047  00000+0 -27138-1 0  9997
2 69669  97.2852 233.4756 0001240  77.5780 300.5832 15.66384883  3783
STARLINK-37948          
1 69670U 26143X   26189.50002315  .00128671  00000+0  23363-2 0  9999
2 69670  97.2858 233.4060 0000862  98.9981 109.0855 15.49100357  3788
STARLINK-37949          
1 69671U 26143Y   26189.50002315 -.02372770  00000+0 -34248-1 0  9998
2 69671  97.2854 233.4520 0001745  96.1328 213.6167 15.59436508  3781
STARLINK-37946          
1 69672U 26143Z   26189.50002315 -.02349279  00000+0 -30288-1 0  9997
2 69672  97.2854 233.4755 0001282  88.5316 275.1914 15.62326742  3785
TJS-26A                 
1 69674U 26144A   26188.80790633 -.00000335  00000+0  00000+0 0  9990
2 69674   6.9612 323.2261 0003405 346.6689  14.2705  1.00267330   147
CZ-7A R/B               
1 69675U 26144B   26189.43811178  .00491140 -54854-6  61856-3 0  9990
2 69675  19.4639 318.1770 7153257 190.9674 135.4218  2.51764230   396
2026-132G               
1 69676U 26132G   26178.13849605  .00008509  00000+0  61874-3 0  9998
2 69676  97.6876 241.7399 0021341 253.6187 106.2693 15.03894241  2272
STARLINK-38005          
1 69677U 26145A   26189.50631046  .00210341  00000+0  13738-2 0  9998
2 69677  97.2854  36.0120 0001506  95.8160 264.3277 15.75237853  2127
STARLINK-38009          
1 69678U 26145B   26189.50453766  .00153321  00000+0  10051-2 0  9999
2 69678  97.2871  36.0144 0001400  84.0719 276.0706 15.75312941  2125
STARLINK-37998          
1 69679U 26145C   26189.50203740 -.03603823  00000+0 -30467-1 0  9999
2 69679  97.2857  36.0185 0013723  67.8847 292.3873 15.73342590  2124
STARLINK-37994          
1 69680U 26145D   26189.50350153 -.04028732  00000+0 -35236-1 0  9992
2 69680  97.2858  36.0159 0014566  50.3810 309.8737 15.73065174  2124
STARLINK-37992          
1 69681U 26145E   26189.50258764  .00649988  00000+0  36736-2 0  9991
2 69681  97.2845  36.0177 0009465  23.2573 336.9120 15.77330110  2124
STARLINK-37997          
1 69682U 26145F   26189.50201216  .00281577  00000+0  17610-2 0  9998
2 69682  97.2854  36.0187 0006620  55.3838 304.8051 15.76020702  2125
STARLINK-37990          
1 69683U 26145G   26189.50240180 -.00699903  00000+0 -49913-2 0  9991
2 69683  97.2773  36.0193 0004017  63.0735 297.0941 15.75603447  2126
STARLINK-37951          
1 69684U 26145H   26189.56524623  .00060595  00000+0  40323-3 0  9999
2 69684  97.2860  36.0853 0000400 332.6431  27.4813 15.75249233  2130
STARLINK-37957          
1 69685U 26145J   26189.50066012  .00207712  00000+0  13539-2 0  9999
2 69685  97.2861  36.0198 0001639  80.3665 279.7785 15.75292227  2125
STARLINK-37968          
1 69686U 26145K   26189.49461991  .00175635  00000+0  11403-2 0  9999
2 69686  97.2847  36.0281 0003254  81.7092 278.4542 15.75469954  2127
STARLINK-37977          
1 69687U 26145L   26189.49390517  .00194965  00000+0  12622-2 0  9996
2 69687  97.2847  36.0296 0003211 200.8372 159.2763 15.75481886  2121
STARLINK-37908          
1 69688U 26145M   26189.49183660  .00203165  00000+0  13240-2 0  9996
2 69688  97.2846  36.0327 0001492  78.3662 281.7771 15.75308645  2126
STARLINK-37979          
1 69689U 26145N   26189.49148512  .00253049  00000+0  16371-2 0  9998
2 69689  97.2859  36.0332 0002802  75.7922 284.3655 15.75336482  2123
STARLINK-37940          
1 69690U 26145P   26189.55396147  .00190977  00000+0  12485-2 0  9998
2 69690  97.2848  36.1017 0001764 126.8530 233.2897 15.75269955  2135
STARLINK-37961          
1 69691U 26145Q   26189.55078114  .00208411  00000+0  13603-2 0  9996
2 69691  97.2858  36.1059 0001350  96.9931 263.1488 15.75258295  2139
STARLINK-37787          
1 69692U 26145R   26189.54866407  .00191369  00000+0  12517-2 0  9992
2 69692  97.2862  36.1085 0001284  94.3271 265.8141 15.75257345  2139
STARLINK-37962          
1 69693U 26145S   26189.50002315 -.00005975  00000+0 -39185-4 0  9990
2 69693  97.2852  36.0641 0001554  98.0529 356.4354 15.75208738  3353
STARLINK-37953          
1 69694U 26145T   26189.54972299  .00193267  00000+0  12643-2 0  9990
2 69694  97.2864  36.1069 0001227 107.5921 252.5478 15.75249439  2132
STARLINK-37926          
1 69695U 26145U   26189.54901680  .00208347  00000+0  13599-2 0  9994
2 69695  97.2860  36.1084 0001332 111.7938 248.3470 15.75258054  2136
STARLINK-37959          
1 69696U 26145V   26189.54795753  .00171817  00000+0  11269-2 0  9990
2 69696  97.2846  36.1098 0001303 115.1894 244.9506 15.75249457  2132
STARLINK-37976          
1 69697U 26145W   26189.54513546  .00181414  00000+0  11867-2 0  9997
2 69697  97.2860  36.1132 0001251 110.3201 249.8199 15.75283374  2137
STARLINK-37912          
1 69698U 26145X   26189.54407703  .00171656  00000+0  11242-2 0  9999
2 69698  97.2861  36.1151 0001012  89.9622 270.1759 15.75282750  2139
STARLINK-37974          
1 69699U 26145Y   26189.54337121  .00187536  00000+0  12259-2 0  9999
2 69699  97.2860  36.1162 0001298 115.1124 245.0276 15.75281909  2136
